     2              NAVIGATION DATA                         RINEX VERSION / TYPE
CCRINEXN V1.6.0 UX  CDDIS               29-AUG-10 15:33     PGM / RUN BY / DATE 
IGS BROADCAST EPHEMERIS FILE                                COMMENT             
    0.5588D-08  0.1490D-07 -0.5960D-07 -0.1192D-06          ION ALPHA           
    0.7782D+05  0.3277D+05 -0.6554D+05 -0.2621D+06          ION BETA            
    0.279396772385D-08 0.888178419700D-15    61440     1599 DELTA-UTC: A0,A1,T,W
    15                                                      LEAP SECONDS        
                                                            END OF HEADER       
18 10  8 28  9 59 44.0 0.896668061614D-04 0.227373675443D-11 0.000000000000D+00
    0.700000000000D+01 0.331875000000D+02 0.554130224605D-08-0.983636226157D+00
    0.204518437386D-05 0.118341251509D-01 0.260025262833D-05 0.515371724320D+04
    0.554384000000D+06 0.180676579475D-06-0.119525242313D+01 0.163912773132D-06
    0.935793204915D+00 0.314343750000D+03-0.230386594414D+01-0.881429572223D-08
    0.211794536378D-09 0.100000000000D+01 0.159800000000D+04 0.000000000000D+00
    0.200000000000D+01 0.000000000000D+00-0.107102096081D-07 0.700000000000D+01
    0.547218000000D+06 0.400000000000D+01 0.000000000000D+00 0.000000000000D+00
20 10  8 28  9 59 44.0 0.517005100846D-04-0.341060513165D-12 0.000000000000D+00
    0.200000000000D+01 0.423125000000D+02 0.554808821107D-08-0.680985015816D+00
    0.226311385632D-05 0.411510956474D-02 0.360980629921D-05 0.515354544449D+04
    0.554384000000D+06-0.670552253723D-07-0.124923820081D+01 0.298023223877D-07
    0.935732334356D+00 0.302250000000D+03 0.130952073194D+01-0.878608030774D-08
    0.227509483475D-09 0.100000000000D+01 0.159800000000D+04 0.000000000000D+00
    0.200000000000D+01 0.000000000000D+00-0.791624188423D-08 0.200000000000D+01
    0.547218000000D+06 0.400000000000D+01 0.000000000000D+00 0.000000000000D+00
23 10  8 28  9 59 44.0 0.356493052095D-03-0.170530256582D-11 0.000000000000D+00
    0.440000000000D+02-0.706562500000D+02 0.450590197462D-08 0.264943888274D+01
   -0.353716313839D-05 0.699301669374D-02 0.761635601520D-05 0.515365444565D+04
    0.554384000000D+06-0.108033418655D-06-0.159706735992D+00 0.633299350738D-07
    0.967382577242D+00 0.239093750000D+03 0.308382118331D+01-0.802247702551D-08
   -0.313227332890D-09 0.100000000000D+01 0.159800000000D+04 0.000000000000D+00
    0.200000000000D+01 0.000000000000D+00-0.200234353542D-07 0.440000000000D+02
    0.547200000000D+06 0.000000000000D+00 0.000000000000D+00 0.000000000000D+00
24 10  8 28  9 59 44.0 0.316660385579D-03 0.318323145621D-11 0.000000000000D+00
    0.300000000000D+01 0.763125000000D+02 0.448697257127D-08 0.308470295572D+01
    0.397674739361D-05 0.570459302980D-02 0.107437372208D-04 0.515480046844D+04
    0.554384000000D+06-0.447034835815D-07-0.221175257436D+01 0.614672899246D-07
    0.949010004133D+00 0.160687500000D+03-0.416681009374D+00-0.796818877547D-08
    0.326442178844D-09 0.100000000000D+01 0.159800000000D+04 0.000000000000D+00
    0.200000000000D+01 0.000000000000D+00-0.139698386192D-08 0.300000000000D+01
    0.547218000000D+06 0.400000000000D+01 0.000000000000D+00 0.000000000000D+00
30 10  8 28  9 59 44.0 0.273347832262D-03 0.341060513165D-11 0.000000000000D+00
    0.500000000000D+02 0.162500000000D+02 0.501449458811D-08-0.135537259001D+01
    0.961124897003D-06 0.125968225766D-01 0.416114926338D-05 0.515369275856D+04
    0.554384000000D+06-0.447034835815D-07 0.188165191234D+01 0.318512320519D-06
    0.956912414032D+00 0.297062500000D+03 0.150802287921D+01-0.848428197583D-08
    0.457161899771D-10 0.100000000000D+01 0.159800000000D+04 0.000000000000D+00
    0.200000000000D+01 0.000000000000D+00-0.791624188423D-08 0.500000000000D+02
    0.551580000000D+06 0.400000000000D+01 0.000000000000D+00 0.000000000000D+00
31 10  8 28  9 59 44.0-0.137872993946D-04 0.295585778076D-11 0.000000000000D+00
    0.800000000000D+01 0.175625000000D+02 0.403445376548D-08 0.102490832263D+01
    0.722706317902D-06 0.735423353035D-02 0.109225511551D-04 0.515375440216D+04
    0.554384000000D+06 0.279396772385D-07 0.882296303731D+00-0.149011611938D-06
    0.977738002324D+00 0.177218750000D+03-0.105084416904D+01-0.779211028696D-08
    0.212508851847D-09 0.100000000000D+01 0.159800000000D+04 0.000000000000D+00
    0.200000000000D+01 0.000000000000D+00-0.130385160446D-07 0.800000000000D+01
    0.552468000000D+06 0.400000000000D+01 0.000000000000D+00 0.000000000000D+00
 1 10  8 28 10  0  0.0-0.156599562615D-03-0.397903932026D-11 0.000000000000D+00
    0.930000000000D+02 0.709375000000D+01 0.469519557374D-08-0.213747631748D+01
    0.445172190666D-06 0.449874997139D-02 0.427477061748D-05 0.515361267090D+04
    0.554400000000D+06 0.316649675369D-07 0.192175796948D+01-0.577419996262D-07
    0.965481259187D+00 0.300906250000D+03 0.949920421941D+00-0.818319800590D-08
    0.101789954246D-09 0.100000000000D+01 0.159800000000D+04 0.000000000000D+00
    0.280000000000D+01 0.630000000000D+02-0.190921127796D-07 0.930000000000D+02
    0.551250000000D+06 0.000000000000D+00 0.000000000000D+00 0.000000000000D+00
 2 10  8 28 10  0  0.0 0.284207053482D-03 0.284217094304D-11 0.000000000000D+00
    0.450000000000D+02 0.561250000000D+02 0.464912222603D-08 0.270459651924D+01
    0.303424894810D-05 0.966742308810D-02 0.101905316114D-04 0.515363524437D+04
    0.554400000000D+06-0.184401869774D-06-0.227978873223D+01 0.353902578354D-07
    0.939755253744D+00 0.167250000000D+03 0.312472504722D+01-0.801211945122D-08
    0.260367988229D-09 0.100000000000D+01 0.159800000000D+04 0.000000000000D+00
    0.200000000000D+01 0.000000000000D+00-0.172294676304D-07 0.450000000000D+02
    0.547200000000D+06 0.000000000000D+00 0.000000000000D+00 0.000000000000D+00
 3 10  8 28 10  0  0.0 0.600826926529D-03 0.500222085975D-11 0.000000000000D+00
    0.110000000000D+02-0.715625000000D+02 0.517914422460D-08 0.257856410057D+01
   -0.382028520107D-05 0.135490840767D-01 0.737234950066D-05 0.515360221100D+04
    0.554400000000D+06 0.139698386192D-06 0.285010294351D+01-0.175088644028D-06
    0.927906404352D+00 0.218093750000D+03 0.102595766207D+01-0.824962942403D-08
   -0.395730781477D-09 0.100000000000D+01 0.159800000000D+04 0.000000000000D+00
    0.200000000000D+01 0.000000000000D+00-0.465661287308D-08 0.110000000000D+02
    0.547218000000D+06 0.400000000000D+01 0.000000000000D+00 0.000000000000D+00
 4 10  8 28 10  0  0.0 0.156550668180D-03 0.864019966684D-11 0.000000000000D+00
    0.370000000000D+02 0.555312500000D+02 0.477484174847D-08-0.532199716689D+00
    0.315904617310D-05 0.920998782385D-02 0.974163413048D-05 0.515374411964D+04
    0.554400000000D+06 0.987201929092D-07-0.226204472089D+01 0.115483999252D-06
    0.938869335425D+00 0.178781250000D+03 0.632361375635D+00-0.828748806429D-08
    0.284297556420D-09 0.100000000000D+01 0.159800000000D+04 0.000000000000D+00
    0.200000000000D+01 0.000000000000D+00-0.605359673500D-08 0.370000000000D+02
    0.547200000000D+06 0.000000000000D+00 0.000000000000D+00 0.000000000000D+00
 5 10  8 28 10  0  0.0-0.293040648103D-04-0.466116034659D-11 0.000000000000D+00
    0.900000000000D+01 0.359687500000D+02 0.499592238594D-08-0.191218333743D+01
    0.159628689289D-05 0.188036530744D-02 0.338628888130D-05 0.515377012444D+04
    0.554400000000D+06 0.186264514923D-07-0.121904663355D+01-0.260770320892D-07
    0.956826730920D+00 0.313218750000D+03 0.173428465775D+00-0.842677958062D-08
    0.193222334200D-09 0.100000000000D+01 0.159800000000D+04 0.000000000000D+00
    0.200000000000D+01 0.000000000000D+00-0.884756445885D-08 0.900000000000D+01
    0.547200000000D+06 0.000000000000D+00 0.000000000000D+00 0.000000000000D+00
 6 10  8 28 10  0  0.0 0.516347587109D-03-0.150066625793D-10 0.000000000000D+00
    0.220000000000D+02-0.615625000000D+02 0.505806774242D-08-0.150167304964D+01
   -0.311993062496D-05 0.621461507399D-02 0.833906233311D-05 0.515365646362D+04
    0.554400000000D+06-0.465661287308D-07 0.292145376506D+01 0.447034835815D-07
    0.935230073618D+00 0.207312500000D+03-0.973987254456D+00-0.840749336817D-08
   -0.337871203238D-09 0.100000000000D+01 0.159800000000D+04 0.000000000000D+00
    0.200000000000D+01 0.000000000000D+00-0.512227416039D-08 0.220000000000D+02
    0.547218000000D+06 0.400000000000D+01 0.000000000000D+00 0.000000000000D+00
 7 10  8 28 10  0  0.0-0.194832682610D-05 0.000000000000D+00 0.000000000000D+00
    0.410000000000D+02 0.161562500000D+02 0.423767651624D-08 0.106849371830D+01
    0.927597284317D-06 0.398960162420D-02 0.960007309914D-05 0.515369887924D+04
    0.554400000000D+06 0.484287738800D-07 0.882282338715D+00-0.372529029846D-07
    0.972508669987D+00 0.196593750000D+03 0.306622992696D+01-0.789068582159D-08
    0.109290266664D-09 0.100000000000D+01 0.159800000000D+04 0.000000000000D+00
    0.200000000000D+01 0.000000000000D+00-0.102445483208D-07 0.410000000000D+02
    0.547200000000D+06 0.000000000000D+00 0.000000000000D+00 0.000000000000D+00
 8 10  8 28 10  0  0.0 0.651553273201D-05 0.113686837722D-12 0.000000000000D+00
    0.620000000000D+02 0.229062500000D+02 0.374515600078D-08 0.453846525101D+00
    0.104308128357D-05 0.114104753593D-01 0.937655568123D-05 0.515366960716D+04
    0.554400000000D+06 0.154599547386D-06 0.952106554054D+00 0.167638063431D-07
    0.993911195134D+00 0.212250000000D+03 0.312241619383D+01-0.772817905254D-08
    0.146791828755D-09 0.100000000000D+01 0.159800000000D+04 0.000000000000D+00
    0.280000000000D+01 0.000000000000D+00-0.372529029846D-08 0.620000000000D+02
    0.547200000000D+06 0.000000000000D+00 0.000000000000D+00 0.000000000000D+00
